start=new Date('2021-09-09T00:00:00.000Z').valueOf();
sats=[{"EPOCH":"2021-09-08T17:44:07.000224","OBJECT_NAME":"STARLINK-1598","TIME_SYSTEM":"UTC","EPHEMERIS_TYPE":"0","RCS_SIZE":"LARGE","TLE_LINE1":"1 46160U 20057AV  21251.73896991  .00000777  00000-0  71036-4 0  9996","BSTAR":"0.00007103600000","FILE":"3111252","ARG_OF_PERICENTER":"74.7638","RA_OF_ASC_NODE":"112.1158","CENTER_NAME":"EARTH","INCLINATION":"53.0536","PERIOD":"95.592","ELEMENT_SET_NO":"999","REF_FRAME":"TEME","APOAPSIS":"548.588","NORAD_CAT_ID":"46160","DECAY_DATE":null,"MEAN_ELEMENT_THEORY":"SGP4","COUNTRY_CODE":"US","GP_ID":"184349128","ECCENTRICITY":"0.00019810","OBJECT_ID":"2020-057AV","MEAN_ANOMALY":"285.3570","MEAN_MOTION":"15.06399272","LAUNCH_DATE":"2020-08-18","REV_AT_EPOCH":"5996","SEMIMAJOR_AXIS":"6925.351","CLASSIFICATION_TYPE":"U","TLE_LINE2":"2 46160  53.0536 112.1158 0001981  74.7638 285.3570 15.06399272 59967","MEAN_MOTION_DOT":"0.00000777","SITE":"AFETR","MEAN_MOTION_DDOT":"0.0000000000000","PERIAPSIS":"545.844","OBJECT_TYPE":"PAYLOAD"},{"TIME_SYSTEM":"UTC","EPOCH":"2021-09-08T20:23:21.900192","OBJECT_NAME":"STARLINK-1600","EPHEMERIS_TYPE":"0","BSTAR":"-0.00002926500000","TLE_LINE1":"1 46161U 20057AW  21251.84955903 -.00000718  00000-0 -29265-4 0  9992","RCS_SIZE":"LARGE","FILE":"3111252","ARG_OF_PERICENTER":"77.9315","RA_OF_ASC_NODE":"111.6183","CENTER_NAME":"EARTH","PERIOD":"95.593","ELEMENT_SET_NO":"999","INCLINATION":"53.0539","REF_FRAME":"TEME","COUNTRY_CODE":"US","APOAPSIS":"548.683","NORAD_CAT_ID":"46161","MEAN_ELEMENT_THEORY":"SGP4","DECAY_DATE":null,"OBJECT_ID":"2020-057AW","GP_ID":"184347376","ECCENTRICITY":"0.00020910","MEAN_MOTION":"15.06393067","MEAN_ANOMALY":"282.1909","LAUNCH_DATE":"2020-08-18","REV_AT_EPOCH":"5998","SEMIMAJOR_AXIS":"6925.370","CLASSIFICATION_TYPE":"U","TLE_LINE2":"2 46161  53.0539 111.6183 0002091  77.9315 282.1909 15.06393067 59982","SITE":"AFETR","MEAN_MOTION_DOT":"-0.00000718","MEAN_MOTION_DDOT":"0.0000000000000","OBJECT_TYPE":"PAYLOAD","PERIAPSIS":"545.787"},{"TIME_SYSTEM":"UTC","EPOCH":"2021-09-08T07:44:20.881824","OBJECT_NAME":"STARLINK-1603","EPHEMERIS_TYPE":"0","TLE_LINE1":"1 46162U 20057AX  21251.32246391 -.00000386  00000-0 -70206-5 0  9993","BSTAR":"-0.00000702060000","RCS_SIZE":"LARGE","FILE":"3110975","ARG_OF_PERICENTER":"79.5430","RA_OF_ASC_NODE":"113.9835","CENTER_NAME":"EARTH","PERIOD":"95.592","ELEMENT_SET_NO":"999","INCLINATION":"53.0536","REF_FRAME":"TEME","COUNTRY_CODE":"US","APOAPSIS":"548.390","NORAD_CAT_ID":"46162","MEAN_ELEMENT_THEORY":"SGP4","DECAY_DATE":null,"OBJECT_ID":"2020-057AX","GP_ID":"184318824","ECCENTRICITY":"0.00017010","MEAN_MOTION":"15.06400620","MEAN_ANOMALY":"280.5751","LAUNCH_DATE":"2020-08-18","REV_AT_EPOCH":"5991","CLASSIFICATION_TYPE":"U","SEMIMAJOR_AXIS":"6925.347","MEAN_MOTION_DOT":"-0.00000386","TLE_LINE2":"2 46162  53.0536 113.9835 0001701  79.5430 280.5751 15.06400620 59916","SITE":"AFETR","MEAN_MOTION_DDOT":"0.0000000000000","OBJECT_TYPE":"PAYLOAD","PERIAPSIS":"546.034"},{"ARG_OF_PERICENTER":"79.3141","FILE":"3111252","CENTER_NAME":"EARTH","RA_OF_ASC_NODE":"91.3139","INCLINATION":"53.0558","ELEMENT_SET_NO":"999","PERIOD":"95.592","REF_FRAME":"TEME","OBJECT_NAME":"STARLINK-1610","EPOCH":"2021-09-08T22:01:33.443616","TIME_SYSTEM":"UTC","EPHEMERIS_TYPE":"0","TLE_LINE1":"1 46163U 20057AY  21251.91774819 -.00000792  00000-0 -34223-4 0  9999","RCS_SIZE":"LARGE","BSTAR":"-0.00003422300000","CLASSIFICATION_TYPE":"U","SEMIMAJOR_AXIS":"6925.353","REV_AT_EPOCH":"5902","MEAN_MOTION_DDOT":"0.0000000000000","MEAN_MOTION_DOT":"-0.00000792","TLE_LINE2":"2 46163  53.0558  91.3139 0002332  79.3141 280.8110 15.06398670 59020","SITE":"AFETR","PERIAPSIS":"545.603","OBJECT_TYPE":"PAYLOAD","MEAN_ELEMENT_THEORY":"SGP4","DECAY_DATE":null,"NORAD_CAT_ID":"46163","APOAPSIS":"548.833","COUNTRY_CODE":"US","ECCENTRICITY":"0.00023320","GP_ID":"184348878","OBJECT_ID":"2020-057AY","MEAN_ANOMALY":"280.8110","MEAN_MOTION":"15.06398670","LAUNCH_DATE":"2020-08-18"},{"RCS_SIZE":"LARGE","TLE_LINE1":"1 46164U 20057AZ  21251.84771009 -.00000577  00000-0 -19781-4 0  9993","BSTAR":"-0.00001978100000","EPHEMERIS_TYPE":"0","TIME_SYSTEM":"UTC","EPOCH":"2021-09-08T20:20:42.151776","OBJECT_NAME":"STARLINK-1612","REF_FRAME":"TEME","PERIOD":"95.592","ELEMENT_SET_NO":"999","INCLINATION":"53.0558","RA_OF_ASC_NODE":"91.6374","CENTER_NAME":"EARTH","FILE":"3111252","ARG_OF_PERICENTER":"78.1880","LAUNCH_DATE":"2020-08-18","MEAN_MOTION":"15.06407569","MEAN_ANOMALY":"281.9368","OBJECT_ID":"2020-057AZ","ECCENTRICITY":"0.00023150","GP_ID":"184348628","COUNTRY_CODE":"US","NORAD_CAT_ID":"46164","APOAPSIS":"548.794","DECAY_DATE":null,"MEAN_ELEMENT_THEORY":"SGP4","OBJECT_TYPE":"PAYLOAD","PERIAPSIS":"545.587","TLE_LINE2":"2 46164  53.0558  91.6374 0002315  78.1880 281.9368 15.06407569 60277","SITE":"AFETR","MEAN_MOTION_DOT":"-0.00000577","MEAN_MOTION_DDOT":"0.0000000000000","REV_AT_EPOCH":"6027","SEMIMAJOR_AXIS":"6925.325","CLASSIFICATION_TYPE":"U"},{"ELEMENT_SET_NO":"999","PERIOD":"95.592","INCLINATION":"53.0549","REF_FRAME":"TEME","ARG_OF_PERICENTER":"75.0172","FILE":"3111252","RA_OF_ASC_NODE":"131.5841","CENTER_NAME":"EARTH","EPHEMERIS_TYPE":"0","BSTAR":"0.00012537000000","TLE_LINE1":"1 46165U 20057BA  21251.85876371  .00001586  00000-0  12537-3 0  9993","RCS_SIZE":"LARGE","TIME_SYSTEM":"UTC","OBJECT_NAME":"STARLINK-1613","EPOCH":"2021-09-08T20:36:37.184544","MEAN_MOTION_DDOT":"0.0000000000000","TLE_LINE2":"2 46165  53.0549 131.5841 0001696  75.0172 285.1004 15.06399583 58458","SITE":"AFETR","MEAN_MOTION_DOT":"0.00001586","OBJECT_TYPE":"PAYLOAD","PERIAPSIS":"546.040","SEMIMAJOR_AXIS":"6925.350","CLASSIFICATION_TYPE":"U","REV_AT_EPOCH":"5845","MEAN_MOTION":"15.06399583","MEAN_ANOMALY":"285.1004","LAUNCH_DATE":"2020-08-18","COUNTRY_CODE":"US","MEAN_ELEMENT_THEORY":"SGP4","DECAY_DATE":null,"APOAPSIS":"548.389","NORAD_CAT_ID":"46165","OBJECT_ID":"2020-057BA","ECCENTRICITY":"0.00016960","GP_ID":"184347877"},{"REF_FRAME":"TEME","PERIOD":"95.592","ELEMENT_SET_NO":"999","INCLINATION":"53.0542","CENTER_NAME":"EARTH","RA_OF_ASC_NODE":"131.3893","FILE":"3111252","ARG_OF_PERICENTER":"79.2361","RCS_SIZE":"LARGE","TLE_LINE1":"1 46166U 20057BB  21251.89930621  .00001280  00000-0  10479-3 0  9991","BSTAR":"0.00010479000000","EPHEMERIS_TYPE":"0","TIME_SYSTEM":"UTC","EPOCH":"2021-09-08T21:35:00.056544","OBJECT_NAME":"STARLINK-1615","OBJECT_TYPE":"PAYLOAD","PERIAPSIS":"545.866","TLE_LINE2":"2 46166  53.0542 131.3893 0001940  79.2361 280.8846 15.06401365 58464","MEAN_MOTION_DOT":"0.00001280","SITE":"AFETR","MEAN_MOTION_DDOT":"0.0000000000000","REV_AT_EPOCH":"5846","SEMIMAJOR_AXIS":"6925.344","CLASSIFICATION_TYPE":"U","LAUNCH_DATE":"2020-08-18","MEAN_MOTION":"15.06401365","MEAN_ANOMALY":"280.8846","OBJECT_ID":"2020-057BB","GP_ID":"184348127","ECCENTRICITY":"0.00019400","COUNTRY_CODE":"US","NORAD_CAT_ID":"46166","APOAPSIS":"548.553","MEAN_ELEMENT_THEORY":"SGP4","DECAY_DATE":null},{"TIME_SYSTEM":"UTC","EPOCH":"2021-09-08T21:56:15.327456","OBJECT_NAME":"STARLINK-1626","BSTAR":"0.00001677600000","TLE_LINE1":"1 46167U 20057BC  21251.91406629 -.00000032  00000-0  16776-4 0  9993","RCS_SIZE":"LARGE","EPHEMERIS_TYPE":"0","RA_OF_ASC_NODE":"131.3302","CENTER_NAME":"EARTH","FILE":"3111252","ARG_OF_PERICENTER":"66.1918","REF_FRAME":"TEME","PERIOD":"95.592","ELEMENT_SET_NO":"999","INCLINATION":"53.0546","OBJECT_ID":"2020-057BC","GP_ID":"184348378","ECCENTRICITY":"0.00021480","COUNTRY_CODE":"US","APOAPSIS":"548.716","NORAD_CAT_ID":"46167","DECAY_DATE":null,"MEAN_ELEMENT_THEORY":"SGP4","LAUNCH_DATE":"2020-08-18","MEAN_MOTION":"15.06395110","MEAN_ANOMALY":"293.9296","REV_AT_EPOCH":"5846","SEMIMAJOR_AXIS":"6925.364","CLASSIFICATION_TYPE":"U","OBJECT_TYPE":"PAYLOAD","PERIAPSIS":"545.741","MEAN_MOTION_DOT":"-0.00000032","TLE_LINE2":"2 46167  53.0546 131.3302 0002148  66.1918 293.9296 15.06395110 58462","SITE":"AFETR","MEAN_MOTION_DDOT":"0.0000000000000"},{"REV_AT_EPOCH":"5912","SEMIMAJOR_AXIS":"6925.355","CLASSIFICATION_TYPE":"U","TLE_LINE2":"2 46168  53.0541  82.3531 0002212  91.6377 268.4865 15.06397940 59127","MEAN_MOTION_DOT":"-0.00000559","SITE":"AFETR","MEAN_MOTION_DDOT":"0.0000000000000","PERIAPSIS":"545.688","OBJECT_TYPE":"PAYLOAD","NORAD_CAT_ID":"46168","APOAPSIS":"548.752","DECAY_DATE":null,"MEAN_ELEMENT_THEORY":"SGP4","COUNTRY_CODE":"US","GP_ID":"184349129","ECCENTRICITY":"0.00022120","OBJECT_ID":"2020-057BD","MEAN_ANOMALY":"268.4865","MEAN_MOTION":"15.06397940","LAUNCH_DATE":"2020-08-18","FILE":"3111252","ARG_OF_PERICENTER":"91.6377","RA_OF_ASC_NODE":"82.3531","CENTER_NAME":"EARTH","INCLINATION":"53.0541","PERIOD":"95.592","ELEMENT_SET_NO":"999","REF_FRAME":"TEME","EPOCH":"2021-09-08T16:27:08.038944","OBJECT_NAME":"STARLINK-1627","TIME_SYSTEM":"UTC","EPHEMERIS_TYPE":"0","TLE_LINE1":"1 46168U 20057BD  21251.68550971 -.00000559  00000-0 -18597-4 0  9996","BSTAR":"-0.00001859700000","RCS_SIZE":"LARGE"},{"OBJECT_TYPE":"PAYLOAD","PERIAPSIS":"548.431","MEAN_MOTION_DDOT":"0.0000000000000","MEAN_MOTION_DOT":"0.00001428","TLE_LINE2":"2 46169  52.9995 131.3275 0001826  76.1642 283.9549 15.05590506 58449","SITE":"AFETR","CLASSIFICATION_TYPE":"U","SEMIMAJOR_AXIS":"6927.831","REV_AT_EPOCH":"5844","LAUNCH_DATE":"2020-08-18","MEAN_MOTION":"15.05590506","MEAN_ANOMALY":"283.9549","OBJECT_ID":"2020-057BE","GP_ID":"184347377","ECCENTRICITY":"0.00018260","COUNTRY_CODE":"US","MEAN_ELEMENT_THEORY":"SGP4","DECAY_DATE":null,"NORAD_CAT_ID":"46169","APOAPSIS":"550.961","REF_FRAME":"TEME","ELEMENT_SET_NO":"999","PERIOD":"95.644","INCLINATION":"52.9995","CENTER_NAME":"EARTH","RA_OF_ASC_NODE":"131.3275","ARG_OF_PERICENTER":"76.1642","FILE":"3111252","BSTAR":"0.00011715000000","TLE_LINE1":"1 46169U 20057BE  21251.91307170  .00001428  00000-0  11715-3 0  9992","RCS_SIZE":"LARGE","EPHEMERIS_TYPE":"0","TIME_SYSTEM":"UTC","OBJECT_NAME":"STARLINK-1628","EPOCH":"2021-09-08T21:54:49.394880"}];
